IRIDIUM 36 [-]          
1 24967U 97056C   24064.37656042  .00000775  00000+0  25661-3 0  9995
2 24967  86.4016  10.2679 0002388  86.3707 273.7763 14.36658607384749
IRIDIUM 39 [-]          
1 25042U 97069D   24064.51275265  .00000974  00000+0  25777-3 0  9993
2 25042  86.3888  52.3275 0020616  75.4371 284.9117 14.47725719380978
IRIDIUM 38 [-]          
1 25043U 97069E   24064.55589088  .00000601  00000+0  19579-3 0  9999
2 25043  86.3905  70.6221 0002089 148.9765 211.1556 14.37115536378481
IRIDIUM 42 [-]          
1 25077U 97077A   24064.55503311  .00000551  00000+0  18503-3 0  9990
2 25077  86.3904  76.2234 0001993 106.3766 253.7649 14.35409728373808
IRIDIUM 45 [-]          
1 25104U 97082A   24064.59392706  .00011243  00000+0  67968-3 0  9994
2 25104  86.3709 271.2372 0166690 259.1480  99.0955 14.99550522381166
IRIDIUM 24 [-]          
1 25105U 97082B   24064.59372918  .00000479  00000+0  14269-3 0  9993
2 25105  86.3862 279.1698 0011310 178.0966 182.0279 14.41004862375568
